{
    "links": {
        "self": "http://www.neowsapp.com/rest/v1/neo/3467226?api_key=iIulBulltgU6a56xZRHN4H3l9WmuAYTsLGpBGhQ2"
    },
    "id": "3467226",
    "neo_reference_id": "3467226",
    "name": "(2009 SN1)",
    "designation": "2009 SN1",
    "nasa_jpl_url": "http://ssd.jpl.nasa.gov/sbdb.cgi?sstr=3467226",
    "absolute_magnitude_h": 25.7,
    "estimated_diameter": {
        "kilometers": {
            "estimated_diameter_min": 0.0192555078,
            "estimated_diameter_max": 0.0430566244
        },
        "meters": {
            "estimated_diameter_min": 19.2555078188,
            "estimated_diameter_max": 43.0566244241
        },
        "miles": {
            "estimated_diameter_min": 0.0119648141,
            "estimated_diameter_max": 0.0267541378
        },
        "feet": {
            "estimated_diameter_min": 63.1742402722,
            "estimated_diameter_max": 141.2618956756
        }
    },
    "is_potentially_hazardous_asteroid": false,
    "close_approach_data": [
        {
            "close_approach_date": "2009-10-03",
            "close_approach_date_full": "2009-Oct-03 01:02",
            "epoch_date_close_approach": 1254531720000,
            "relative_velocity": {
                "kilometers_per_second": "7.197506521",
                "kilometers_per_hour": "25911.0234755347",
                "miles_per_hour": "16100.1023367843"
            },
            "miss_distance": {
                "astronomical": "0.0526549295",
                "lunar": "20.4827675755",
                "kilometers": "7877065.298200165",
                "miles": "4894581.411545677"
            },
            "orbiting_body": "Earth"
        },
        {
            "close_approach_date": "2072-08-26",
            "close_approach_date_full": "2072-Aug-26 23:12",
            "epoch_date_close_approach": 3239478720000,
            "relative_velocity": {
                "kilometers_per_second": "19.9640017302",
                "kilometers_per_hour": "71870.4062285692",
                "miles_per_hour": "44657.4754701907"
            },
            "miss_distance": {
                "astronomical": "0.4621601609",
                "lunar": "179.7803025901",
                "kilometers": "69138175.669497283",
                "miles": "42960470.2575491854"
            },
            "orbiting_body": "Earth"
        }
    ],
    "orbital_data": {
        "orbit_id": "11",
        "orbit_determination_date": "2017-04-06 08:59:57",
        "first_observation_date": "2009-09-18",
        "last_observation_date": "2009-09-27",
        "data_arc_in_days": 9,
        "observations_used": 27,
        "orbit_uncertainty": "8",
        "minimum_orbit_intersection": ".0417854",
        "jupiter_tisserand_invariant": "3.731",
        "epoch_osculation": "2455095.5",
        "eccentricity": ".4780418549187648",
        "semi_major_axis": "1.958886511474683",
        "inclination": "4.151130869946096",
        "ascending_node_longitude": "357.5652706121286",
        "orbital_period": "1001.410960655715",
        "perihelion_distance": "1.022456769953977",
        "perihelion_argument": "33.69784007662142",
        "aphelion_distance": "2.895316252995388",
        "perihelion_time": "2455124.953095552781",
        "mean_anomaly": "349.4118250991997",
        "mean_motion": ".3594927698457336",
        "equinox": "J2000",
        "orbit_class": {
            "orbit_class_type": "AMO",
            "orbit_class_description": "Near-Earth asteroid orbits similar to that of 1221 Amor",
            "orbit_class_range": "1.017 AU < q (perihelion) < 1.3 AU"
        }
    },
    "is_sentry_object": false
}